[{"OBJECT_NAME":"STARLINK-35137","OBJECT_ID":"2025-212L","EPOCH":"2025-12-04T15:00:58.777056","MEAN_MOTION":15.39615916,"ECCENTRICITY":8.98e-5,"INCLINATION":53.1609,"RA_OF_ASC_NODE":63.3006,"ARG_OF_PERICENTER":81.5662,"MEAN_ANOMALY":278.5445,"EPHEMERIS_TYPE":0,"CLASSIFICATION_TYPE":"U","NORAD_CAT_ID":65686,"ELEMENT_SET_NO":999,"REV_AT_EPOCH":1269,"BSTAR":0.001372,"MEAN_MOTION_DOT":0.00054869,"MEAN_MOTION_DDOT":0},{"OBJECT_NAME":"STARLINK-34856","OBJECT_ID":"2025-212M","EPOCH":"2025-12-04T15:20:08.284128","MEAN_MOTION":15.30250643,"ECCENTRICITY":0.0001446,"INCLINATION":53.1619,"RA_OF_ASC_NODE":66.979,"ARG_OF_PERICENTER":67.4414,"MEAN_ANOMALY":292.674,"EPHEMERIS_TYPE":0,"CLASSIFICATION_TYPE":"U","NORAD_CAT_ID":65687,"ELEMENT_SET_NO":999,"REV_AT_EPOCH":1264,"BSTAR":0.00094662,"MEAN_MOTION_DOT":0.00027826,"MEAN_MOTION_DDOT":0},{"OBJECT_NAME":"STARLINK-34930","OBJECT_ID":"2025-212N","EPOCH":"2025-12-04T15:33:48.799872","MEAN_MOTION":15.30209073,"ECCENTRICITY":0.0001393,"INCLINATION":53.1621,"RA_OF_ASC_NODE":67.0366,"ARG_OF_PERICENTER":98.7625,"MEAN_ANOMALY":261.3534,"EPHEMERIS_TYPE":0,"CLASSIFICATION_TYPE":"U","NORAD_CAT_ID":65688,"ELEMENT_SET_NO":999,"REV_AT_EPOCH":1269,"BSTAR":0.0020789,"MEAN_MOTION_DOT":0.00061741,"MEAN_MOTION_DDOT":0},{"OBJECT_NAME":"STARLINK-34875","OBJECT_ID":"2025-212P","EPOCH":"2025-12-04T13:03:42.012000","MEAN_MOTION":15.3019915,"ECCENTRICITY":0.000143,"INCLINATION":53.1592,"RA_OF_ASC_NODE":67.8096,"ARG_OF_PERICENTER":74.3158,"MEAN_ANOMALY":285.8001,"EPHEMERIS_TYPE":0,"CLASSIFICATION_TYPE":"U","NORAD_CAT_ID":65689,"ELEMENT_SET_NO":999,"REV_AT_EPOCH":1267,"BSTAR":0.0030641,"MEAN_MOTION_DOT":0.00091512,"MEAN_MOTION_DDOT":0},{"OBJECT_NAME":"STARLINK-34790","OBJECT_ID":"2025-212Q","EPOCH":"2025-12-04T16:07:14.835072","MEAN_MOTION":15.30193036,"ECCENTRICITY":0.0001379,"INCLINATION":53.16,"RA_OF_ASC_NODE":67.1833,"ARG_OF_PERICENTER":116.8276,"MEAN_ANOMALY":243.2866,"EPHEMERIS_TYPE":0,"CLASSIFICATION_TYPE":"U","NORAD_CAT_ID":65690,"ELEMENT_SET_NO":999,"REV_AT_EPOCH":1264,"BSTAR":0.0023868,"MEAN_MOTION_DOT":0.00070993,"MEAN_MOTION_DDOT":0},{"OBJECT_NAME":"STARLINK-34691","OBJECT_ID":"2025-212R","EPOCH":"2025-12-04T14:14:10.352832","MEAN_MOTION":15.39602357,"ECCENTRICITY":0.0001477,"INCLINATION":53.1599,"RA_OF_ASC_NODE":63.0947,"ARG_OF_PERICENTER":124.5424,"MEAN_ANOMALY":235.572,"EPHEMERIS_TYPE":0,"CLASSIFICATION_TYPE":"U","NORAD_CAT_ID":65691,"ELEMENT_SET_NO":999,"REV_AT_EPOCH":1274,"BSTAR":0.0024166,"MEAN_MOTION_DOT":0.00097451,"MEAN_MOTION_DDOT":0},{"OBJECT_NAME":"STARLINK-34825","OBJECT_ID":"2025-212S","EPOCH":"2025-12-04T12:34:49.559808","MEAN_MOTION":15.30209734,"ECCENTRICITY":0.0001378,"INCLINATION":53.1608,"RA_OF_ASC_NODE":67.6858,"ARG_OF_PERICENTER":75.2263,"MEAN_ANOMALY":284.889,"EPHEMERIS_TYPE":0,"CLASSIFICATION_TYPE":"U","NORAD_CAT_ID":65692,"ELEMENT_SET_NO":999,"REV_AT_EPOCH":1266,"BSTAR":0.0014636,"MEAN_MOTION_DOT":0.00043255,"MEAN_MOTION_DDOT":0},{"OBJECT_NAME":"STARLINK-35060","OBJECT_ID":"2025-212T","EPOCH":"2025-12-04T16:14:23.595072","MEAN_MOTION":15.39655428,"ECCENTRICITY":0.0001208,"INCLINATION":53.1592,"RA_OF_ASC_NODE":62.9067,"ARG_OF_PERICENTER":61.2298,"MEAN_ANOMALY":298.8828,"EPHEMERIS_TYPE":0,"CLASSIFICATION_TYPE":"U","NORAD_CAT_ID":65693,"ELEMENT_SET_NO":999,"REV_AT_EPOCH":1275,"BSTAR":0.0018039,"MEAN_MOTION_DOT":0.00072529,"MEAN_MOTION_DDOT":0},{"OBJECT_NAME":"STARLINK-35204","OBJECT_ID":"2025-212U","EPOCH":"2025-12-04T12:50:01.008960","MEAN_MOTION":15.30189303,"ECCENTRICITY":0.0001117,"INCLINATION":53.1601,"RA_OF_ASC_NODE":67.75,"ARG_OF_PERICENTER":108.221,"MEAN_ANOMALY":251.8912,"EPHEMERIS_TYPE":0,"CLASSIFICATION_TYPE":"U","NORAD_CAT_ID":65694,"ELEMENT_SET_NO":999,"REV_AT_EPOCH":1268,"BSTAR":0.0013026,"MEAN_MOTION_DOT":0.00038407,"MEAN_MOTION_DDOT":0},{"OBJECT_NAME":"STARLINK-35221","OBJECT_ID":"2025-212V","EPOCH":"2025-12-04T12:21:08.906688","MEAN_MOTION":15.30212032,"ECCENTRICITY":0.0001448,"INCLINATION":53.1629,"RA_OF_ASC_NODE":67.6247,"ARG_OF_PERICENTER":95.9758,"MEAN_ANOMALY":264.1408,"EPHEMERIS_TYPE":0,"CLASSIFICATION_TYPE":"U","NORAD_CAT_ID":65695,"ELEMENT_SET_NO":999,"REV_AT_EPOCH":1268,"BSTAR":0.0029282,"MEAN_MOTION_DOT":0.00087423,"MEAN_MOTION_DDOT":0},{"OBJECT_NAME":"STARLINK-34734","OBJECT_ID":"2025-212W","EPOCH":"2025-12-04T15:11:01.184640","MEAN_MOTION":15.30197059,"ECCENTRICITY":0.0001269,"INCLINATION":53.1612,"RA_OF_ASC_NODE":66.9367,"ARG_OF_PERICENTER":64.2438,"MEAN_ANOMALY":295.8694,"EPHEMERIS_TYPE":0,"CLASSIFICATION_TYPE":"U","NORAD_CAT_ID":65696,"ELEMENT_SET_NO":999,"REV_AT_EPOCH":1269,"BSTAR":0.0019052,"MEAN_MOTION_DOT":0.00056493,"MEAN_MOTION_DDOT":0},{"OBJECT_NAME":"STARLINK-35113","OBJECT_ID":"2025-212X","EPOCH":"2025-12-04T11:47:43.147104","MEAN_MOTION":15.3015214,"ECCENTRICITY":0.000132,"INCLINATION":53.1594,"RA_OF_ASC_NODE":67.473,"ARG_OF_PERICENTER":90.1737,"MEAN_ANOMALY":269.9415,"EPHEMERIS_TYPE":0,"CLASSIFICATION_TYPE":"U","NORAD_CAT_ID":65697,"ELEMENT_SET_NO":999,"REV_AT_EPOCH":1267,"BSTAR":0.0031427,"MEAN_MOTION_DOT":0.00093761,"MEAN_MOTION_DDOT":0},{"OBJECT_NAME":"STARLINK-35090","OBJECT_ID":"2025-212Y","EPOCH":"2025-12-04T15:50:31.776000","MEAN_MOTION":15.30203483,"ECCENTRICITY":0.0001408,"INCLINATION":53.1613,"RA_OF_ASC_NODE":67.1103,"ARG_OF_PERICENTER":89.7621,"MEAN_ANOMALY":270.3541,"EPHEMERIS_TYPE":0,"CLASSIFICATION_TYPE":"U","NORAD_CAT_ID":65698,"ELEMENT_SET_NO":999,"REV_AT_EPOCH":1269,"BSTAR":0.0019829,"MEAN_MOTION_DOT":0.0005884,"MEAN_MOTION_DDOT":0},{"OBJECT_NAME":"STARLINK-35086","OBJECT_ID":"2025-212Z","EPOCH":"2025-12-04T13:20:24.930240","MEAN_MOTION":15.30213633,"ECCENTRICITY":0.000131,"INCLINATION":53.1593,"RA_OF_ASC_NODE":67.8799,"ARG_OF_PERICENTER":87.7367,"MEAN_ANOMALY":272.3784,"EPHEMERIS_TYPE":0,"CLASSIFICATION_TYPE":"U","NORAD_CAT_ID":65699,"ELEMENT_SET_NO":999,"REV_AT_EPOCH":1262,"BSTAR":0.0007208,"MEAN_MOTION_DOT":0.00021058,"MEAN_MOTION_DDOT":0},{"OBJECT_NAME":"STARLINK-35101","OBJECT_ID":"2025-212AA","EPOCH":"2025-12-04T15:03:25.311456","MEAN_MOTION":15.30203374,"ECCENTRICITY":0.00013247,"INCLINATION":53.1592,"RA_OF_ASC_NODE":66.9014,"ARG_OF_PERICENTER":96.1328,"MEAN_ANOMALY":263.9824,"EPHEMERIS_TYPE":0,"CLASSIFICATION_TYPE":"U","NORAD_CAT_ID":65700,"ELEMENT_SET_NO":999,"REV_AT_EPOCH":1264,"BSTAR":0.0023563341,"MEAN_MOTION_DOT":0.00070096,"MEAN_MOTION_DDOT":0},{"OBJECT_NAME":"STARLINK-35046","OBJECT_ID":"2025-212AB","EPOCH":"2025-12-04T15:56:36.060000","MEAN_MOTION":15.3014979,"ECCENTRICITY":0.000125,"INCLINATION":53.1607,"RA_OF_ASC_NODE":67.1352,"ARG_OF_PERICENTER":86.8198,"MEAN_ANOMALY":273.2945,"EPHEMERIS_TYPE":0,"CLASSIFICATION_TYPE":"U","NORAD_CAT_ID":65701,"ELEMENT_SET_NO":999,"REV_AT_EPOCH":1269,"BSTAR":0.0017241,"MEAN_MOTION_DOT":0.00050974,"MEAN_MOTION_DDOT":0},{"OBJECT_NAME":"STARLINK-35075","OBJECT_ID":"2025-212AC","EPOCH":"2025-12-04T15:27:43.976736","MEAN_MOTION":15.30224809,"ECCENTRICITY":0.0001075,"INCLINATION":53.162,"RA_OF_ASC_NODE":67.0093,"ARG_OF_PERICENTER":64.2016,"MEAN_ANOMALY":295.9096,"EPHEMERIS_TYPE":0,"CLASSIFICATION_TYPE":"U","NORAD_CAT_ID":65702,"ELEMENT_SET_NO":999,"REV_AT_EPOCH":1269,"BSTAR":0.00084009,"MEAN_MOTION_DOT":0.00024623,"MEAN_MOTION_DDOT":0}]
