STARLINK-35137          
1 65686U 25212L   25338.62568029  .00054869  00000+0  13720-2 0  9998
2 65686  53.1609  63.3006 0000898  81.5662 278.5445 15.39615916 12697
STARLINK-34856          
1 65687U 25212M   25338.63898477  .00027826  00000+0  94662-3 0  9991
2 65687  53.1619  66.9790 0001446  67.4414 292.6740 15.30250643 12649
STARLINK-34930          
1 65688U 25212N   25338.64848148  .00061741  00000+0  20789-2 0  9995
2 65688  53.1621  67.0366 0001393  98.7625 261.3534 15.30209073 12696
STARLINK-34875          
1 65689U 25212P   25338.54423625  .00091512  00000+0  30641-2 0  9991
2 65689  53.1592  67.8096 0001430  74.3158 285.8001 15.30199150 12677
STARLINK-34790          
1 65690U 25212Q   25338.67169948  .00070993  00000+0  23868-2 0  9995
2 65690  53.1600  67.1833 0001379 116.8276 243.2866 15.30193036 12647
STARLINK-34691          
1 65691U 25212R   25338.59317538  .00097451  00000+0  24166-2 0  9997
2 65691  53.1599  63.0947 0001477 124.5424 235.5720 15.39602357 12740
STARLINK-34825          
1 65692U 25212S   25338.52418472  .00043255  00000+0  14636-2 0  9994
2 65692  53.1608  67.6858 0001378  75.2263 284.8890 15.30209734 12665
STARLINK-35060          
1 65693U 25212T   25338.67666198  .00072529  00000+0  18039-2 0  9998
2 65693  53.1592  62.9067 0001208  61.2298 298.8828 15.39655428 12753
STARLINK-35204          
1 65694U 25212U   25338.53473390  .00038407  00000+0  13026-2 0  9992
2 65694  53.1601  67.7500 0001117 108.2210 251.8912 15.30189303 12685
STARLINK-35221          
1 65695U 25212V   25338.51468642  .00087423  00000+0  29282-2 0  9998
2 65695  53.1629  67.6247 0001448  95.9758 264.1408 15.30212032 12682
STARLINK-34734          
1 65696U 25212W   25338.63265260  .00056493  00000+0  19052-2 0  9990
2 65696  53.1612  66.9367 0001269  64.2438 295.8694 15.30197059 12695
STARLINK-35113          
1 65697U 25212X   25338.49147161  .00093761  00000+0  31427-2 0  9993
2 65697  53.1594  67.4730 0001320  90.1737 269.9415 15.30152140 12676
STARLINK-35090          
1 65698U 25212Y   25338.66009000  .00058840  00000+0  19829-2 0  9993
2 65698  53.1613  67.1103 0001408  89.7621 270.3541 15.30203483 12698
STARLINK-35086          
1 65699U 25212Z   25338.55584410  .00021058  00000+0  72080-3 0  9995
2 65699  53.1593  67.8799 0001310  87.7367 272.3784 15.30213633 12623
STARLINK-35101          
1 65700U 25212AA  25338.62737629  .00070096  00000+0  23563-2 0  9995
2 65700  53.1592  66.9014 0001324  96.1328 263.9824 15.30203374 12645
STARLINK-35046          
1 65701U 25212AB  25338.66430625  .00050974  00000+0  17241-2 0  9995
2 65701  53.1607  67.1352 0001250  86.8198 273.2945 15.30149790 12694
STARLINK-35075          
1 65702U 25212AC  25338.64425899  .00024623  00000+0  84009-3 0  9990
2 65702  53.1620  67.0093 0001075  64.2016 295.9096 15.30224809 12698
